OBJECT_NAME,OBJECT_ID,EPOCH,MEAN_MOTION,ECCENTRICITY,INCLINATION,RA_OF_ASC_NODE,ARG_OF_PERICENTER,MEAN_ANOMALY,EPHEMERIS_TYPE,CLASSIFICATION_TYPE,NORAD_CAT_ID,ELEMENT_SET_NO,REV_AT_EPOCH,BSTAR,MEAN_MOTION_DOT,MEAN_MOTION_DDOT
OSCAR 7 (AO-7),1974-089B,2026-07-04T19:16:14.420352,12.53698408,.00126604,101.9900,199.2331,97.5363,75.1634,0,U,7530,999,36272,.1320735E-4,-.44E-6,0
PHASE 3B (AO-10),1983-058B,2026-07-04T08:44:24.935136,2.05868912,.60050721,25.9269,216.7306,120.3873,311.9427,0,U,14129,999,29584,0,.171E-5,0
UOSAT 2 (UO-11),1984-021B,2026-07-04T08:05:00.065184,14.90828993,.00089092,97.8067,150.7210,121.3323,238.8769,0,U,14781,999,25968,.17048389E-3,.1623E-4,0
LUSAT (LO-19),1990-005G,2026-07-04T11:37:47.666208,14.34128816,.00120834,98.8845,207.7664,150.7420,209.4442,0,U,20442,999,90487,.83427989E-4,.187E-5,0
EYESAT A (AO-27),1993-061C,2026-07-03T15:24:05.061600,14.30946735,.0009299,98.6874,252.0488,57.1001,303.1075,0,U,22825,999,70935,.6611E-4,.129E-5,0
ITAMSAT (IO-26),1993-061D,2026-07-04T10:55:17.146848,14.31374357,.00095585,98.6820,252.7811,39.4050,320.7827,0,U,22826,999,70978,.66437632E-4,.132E-5,0
RADIO ROSTO (RS15),1994-085A,2026-07-04T16:14:02.782176,11.27583563,.0156534,64.8176,274.9321,0.6436,359.4663,0,U,23439,999,29787,.61025994E-3,-.21E-6,0
JAS-2 (FO-29),1996-046B,2026-07-04T19:59:59.651520,13.53275006,.03507285,98.5226,32.2868,50.7729,312.3996,0,U,24278,999,47555,.11394872E-4,-.22E-6,0
TECHSAT 1B (GO-32),1998-043D,2026-07-04T16:41:19.348512,14.24432028,.00018493,99.0076,178.8961,131.4740,228.6597,0,U,25397,999,45382,.64727903E-4,.103E-5,0
ISS (ZARYA),1998-067A,2026-07-04T19:09:56.682144,15.48894567,.00067612,51.6303,212.9192,256.1012,103.9224,0,U,25544,999,57448,.18504104E-3,.9725E-4,0
PCSAT (NO-44),2001-043C,2026-07-04T18:14:51.403488,14.31962451,.00060118,67.0488,198.8194,265.8783,94.1632,0,U,26931,999,29296,.98038169E-4,.18E-5,0
SAUDISAT 1C (SO-50),2002-058C,2026-07-04T16:29:59.668224,14.83086074,.0074817,64.5520,74.8394,259.1898,100.0781,0,U,27607,999,26705,.18211702E-3,.1404E-4,0
CUTE-1 (CO-55),2003-031E,2026-07-04T17:45:02.691072,14.24347463,.00105167,98.6737,194.0777,129.7528,230.4579,0,U,27844,999,19417,.21011064E-3,.442E-5,0
CUBESAT XI-IV (CO-57),2003-031J,2026-07-04T22:44:44.423232,14.23630898,.00101029,98.6769,193.9817,146.4963,213.6856,0,U,27848,999,19390,.16663671E-3,.336E-5,0
MOZHAETS 4 (RS22),2003-042A,2026-07-05T00:21:25.250112,14.73499527,.00104311,98.3470,10.8774,206.7413,273.3478,0,U,27939,999,21817,.14537973E-3,.891E-5,0
CUBESAT XI-V,2005-043F,2026-07-04T09:20:05.559936,14.72680865,.00147821,98.3005,341.3738,147.1004,213.1126,0,U,28895,999,10428,.28553467E-3,.177E-4,0
CUTE-1.7+APD II (CO-65),2008-021C,2026-07-04T21:08:50.837280,15.09633593,.00078678,97.8291,167.6702,340.9032,19.1900,0,U,32785,999,98786,.53961078E-3,.8623E-4,0
SEEDS II (CO-66),2008-021J,2026-07-04T10:23:00.035520,15.33363820,.0001728,97.7524,184.1606,182.8998,177.2234,0,U,32791,999,98993,.82864793E-3,.26699E-3,0
YUBILEINY (RS30),2008-025A,2026-07-04T21:13:07.430592,12.43180406,.00185063,82.5053,344.4297,272.8965,86.9997,0,U,32953,999,82189,.45991435E-3,.74E-6,0
KKS-1 (KISEKI),2009-002H,2026-07-04T17:31:20.436960,14.83172947,.00066587,98.1181,108.4502,226.6782,133.3877,0,U,33499,999,93879,.24872581E-3,.1975E-4,0
SWISSCUBE,2009-051B,2026-07-04T11:28:26.837760,14.62517748,.00072179,98.4021,93.6669,148.5860,211.5774,0,U,35932,999,89168,.31098137E-3,.1528E-4,0
BEESAT-1,2009-051C,2026-07-04T00:25:02.099424,14.61748287,.00053974,98.3948,92.7981,160.6033,199.5374,0,U,35933,999,89164,.21141658E-3,.1005E-4,0
ITUPSAT1,2009-051E,2026-07-04T16:59:43.323648,14.60469280,.00073167,98.4031,92.6727,174.2685,185.8600,0,U,35935,999,89129,.2547061E-3,.1186E-4,0
XIWANG-1 (HOPE-1),2009-072B,2026-07-04T21:00:58.559328,13.16438260,.00072598,100.4037,139.4262,188.6106,171.4884,0,U,36122,999,79533,-.76446848E-3,-.336E-5,0
O/OREOS (USA 219),2010-062C,2026-07-04T21:01:01.661952,14.93823517,.00133412,71.9706,40.2694,25.6816,334.5014,0,U,37224,999,11928,.32603143E-3,.3406E-4,0
JUGNU,2011-058B,2026-07-04T17:57:21.417120,14.13781346,.00183404,19.9588,201.7381,270.3523,246.2724,0,U,37839,999,76151,.88488381E-4,.437E-5,0
SRMSAT,2011-058D,2026-07-04T16:11:13.217856,14.11579530,.00118514,19.9730,313.6268,36.6009,351.4175,0,U,37841,999,76029,.85792093E-4,.423E-5,0
STRAND-1,2013-009E,2026-07-04T17:45:26.120160,14.37174961,.00087833,98.3930,5.5427,170.5824,189.5529,0,U,39090,999,69958,.16398071E-3,.445E-5,0
ZACUBE-1 (TSHEPISOSAT),2013-066B,2026-07-04T20:53:32.718048,15.01293841,.00432308,97.8034,148.2964,188.3857,171.6650,0,U,39417,999,68338,.41178121E-3,.534E-4,0
GOMX-1,2013-066Q,2026-07-04T19:43:13.101024,14.69518650,.01291404,97.6469,25.1709,21.4940,339.1620,0,U,39430,999,67250,.2141212E-3,.1392E-4,0
