OSCAR 7 (AO-7)          
1 07530U 74089B   26185.80294468 -.00000044  00000+0  13207-4 0  9991
2 07530 101.9900 199.2331 0012660  97.5363  75.1634 12.53698408362725
PHASE 3B (AO-10)        
1 14129U 83058B   26185.36417749  .00000171  00000+0  00000+0 0  9991
2 14129  25.9269 216.7306 6005072 120.3873 311.9427  2.05868912295847
UOSAT 2 (UO-11)         
1 14781U 84021B   26185.33680631  .00001623  00000+0  17048-3 0  9992
2 14781  97.8067 150.7210 0008909 121.3323 238.8769 14.90828993259683
LUSAT (LO-19)           
1 20442U 90005G   26185.48457947  .00000187  00000+0  83428-4 0  9990
2 20442  98.8845 207.7664 0012083 150.7420 209.4442 14.34128816904872
EYESAT A (AO-27)        
1 22825U 93061C   26184.64172526  .00000129  00000+0  66110-4 0  9991
2 22825  98.6874 252.0488 0009299  57.1001 303.1075 14.30946735709350
ITAMSAT (IO-26)         
1 22826U 93061D   26185.45505957  .00000132  00000+0  66438-4 0  9997
2 22826  98.6820 252.7811 0009558  39.4050 320.7827 14.31374357709787
RADIO ROSTO (RS15)      
1 23439U 94085A   26185.67642109 -.00000021  00000+0  61026-3 0  9995
2 23439  64.8176 274.9321 0156534   0.6436 359.4663 11.27583563297876
JAS-2 (FO-29)           
1 24278U 96046B   26185.83332930 -.00000022  00000+0  11395-4 0  9998
2 24278  98.5226  32.2868 0350728  50.7729 312.3996 13.53275006475552
TECHSAT 1B (GO-32)      
1 25397U 98043D   26185.69536283  .00000103  00000+0  64728-4 0  9998
2 25397  99.0076 178.8961 0001849 131.4740 228.6597 14.24432028453822
ISS (ZARYA)             
1 25544U 98067A   26185.79857271  .00009725  00000+0  18504-3 0  9991
2 25544  51.6303 212.9192 0006761 256.1012 103.9224 15.48894567574489
PCSAT (NO-44)           
1 26931U 01043C   26185.76031717  .00000180  00000+0  98038-4 0  9993
2 26931  67.0488 198.8194 0006011 265.8783  94.1632 14.31962451292962
SAUDISAT 1C (SO-50)     
1 27607U 02058C   26185.68749616  .00001404  00000+0  18212-3 0  9991
2 27607  64.5520  74.8394 0074817 259.1898 100.0781 14.83086074267058
CUTE-1 (CO-55)          
1 27844U 03031E   26185.73961448  .00000442  00000+0  21011-3 0  9993
2 27844  98.6737 194.0777 0010516 129.7528 230.4579 14.24347463194179
CUBESAT XI-IV (CO-57)   
1 27848U 03031J   26185.94773638  .00000336  00000+0  16664-3 0  9992
2 27848  98.6769 193.9817 0010102 146.4963 213.6856 14.23630898193908
MOZHAETS 4 (RS22)       
1 27939U 03042A   26186.01487558  .00000891  00000+0  14538-3 0  9991
2 27939  98.3470  10.8774 0010431 206.7413 273.3478 14.73499527218176
CUBESAT XI-V            
1 28895U 05043F   26185.38895324  .00001770  00000+0  28553-3 0  9998
2 28895  98.3005 341.3738 0014782 147.1004 213.1126 14.72680865104285
CUTE-1.7+APD II (CO-65) 
1 32785U 08021C   26185.88114395  .00008623  00000+0  53961-3 0  9992
2 32785  97.8291 167.6702 0007867 340.9032  19.1900 15.09633593987863
SEEDS II (CO-66)        
1 32791U 08021J   26185.43263930  .00026699  00000+0  82865-3 0  9998
2 32791  97.7524 184.1606 0001728 182.8998 177.2234 15.33363820989935
YUBILEINY (RS30)        
1 32953U 08025A   26185.88411378  .00000074  00000+0  45991-3 0  9990
2 32953  82.5053 344.4297 0018506 272.8965  86.9997 12.43180406821894
KKS-1 (KISEKI)          
1 33499U 09002H   26185.73009765  .00001975  00000+0  24873-3 0  9996
2 33499  98.1181 108.4502 0006658 226.6782 133.3877 14.83172947938790
SWISSCUBE               
1 35932U 09051B   26185.47808840  .00001528  00000+0  31098-3 0  9997
2 35932  98.4021  93.6669 0007217 148.5860 211.5774 14.62517748891680
BEESAT-1                
1 35933U 09051C   26185.01738541  .00001005  00000+0  21142-3 0  9997
2 35933  98.3948  92.7981 0005397 160.6033 199.5374 14.61748287891649
ITUPSAT1                
1 35935U 09051E   26185.70814032  .00001186  00000+0  25471-3 0  9994
2 35935  98.4031  92.6727 0007316 174.2685 185.8600 14.60469280891292
XIWANG-1 (HOPE-1)       
1 36122U 09072B   26185.87567777 -.00000336  00000+0 -76447-3 0  9992
2 36122 100.4037 139.4262 0007259 188.6106 171.4884 13.16438260795335
O/OREOS (USA 219)       
1 37224U 10062C   26185.87571368  .00003406  00000+0  32603-3 0  9993
2 37224  71.9706  40.2694 0013341  25.6816 334.5014 14.93823517119289
JUGNU                   
1 37839U 11058B   26185.74816455  .00000437  00000+0  88488-4 0  9990
2 37839  19.9588 201.7381 0018340 270.3523 246.2724 14.13781346761517
SRMSAT                  
1 37841U 11058D   26185.67445854  .00000423  00000+0  85792-4 0  9996
2 37841  19.9730 313.6268 0011851  36.6009 351.4175 14.11579530760299
STRAND-1                
1 39090U 13009E   26185.73988565  .00000445  00000+0  16398-3 0  9999
2 39090  98.3930   5.5427 0008783 170.5824 189.5529 14.37174961699580
ZACUBE-1 (TSHEPISOSAT)  
1 39417U 13066B   26185.87051757  .00005340  00000+0  41178-3 0  9997
2 39417  97.8034 148.2964 0043230 188.3857 171.6650 15.01293841683381
GOMX-1                  
1 39430U 13066Q   26185.82167941  .00001392  00000+0  21412-3 0  9992
2 39430  97.6469  25.1709 0129140  21.4940 339.1620 14.69518650672502
